{
"type": "FeatureCollection",
"name": "C:\\Users\\Administrator\\Desktop\\武大高斯\\套盒\\路线.geojson",
"crs": { "type": "name", "properties": { "name": "urn:ogc:def:crs:OGC:1.3:CRS84" } },
"features": [
{ "type": "Feature", "properties": { }, "geometry": { "type": "Polygon", "coordinates": [ [ [ 52.584930419921903, 36.151359558105497, -0.715645849704742 ], [ 48.834034023344699, 37.784742604346903, -0.630312621593475 ], [ 45.663688659667997, 35.102169036865199, -0.659588634967804 ], [ 44.7763773706425, 34.3289202512697, -0.602877259254456 ], [ 42.121124267578097, 33.413047790527301, -0.558575570583344 ], [ 42.025093550655498, 33.054661894607598, -0.573070347309113 ], [ 44.219425975832301, 26.269096576067401, -0.608079314231873 ], [ 42.343060144022701, 19.535370073718799, -0.64885014295578 ], [ 28.943168640136701, 18.450443267822301, -0.630285918712616 ], [ 27.801485061645501, 18.365329742431602, -0.614987075328827 ], [ 27.2260953375295, 19.3626264243997, -0.619300603866577 ], [ 25.217139623191301, 24.112359932840999, -0.897402763366699 ], [ 24.725776780949701, 24.134731727969701, -0.535792350769043 ], [ 24.096565246581999, 23.998033523559599, -0.403410017490387 ], [ 17.968700408935501, 21.410724639892599, 1.184496402740479 ], [ 15.484962463378899, 20.510166168212901, 1.20281457901001 ], [ 13.9907531738281, 21.857652664184599, 1.090527296066284 ], [ 13.811603515283, 23.4498388288755, 1.081315755844116 ], [ 16.382897840882801, 25.3634317566937, 1.175664901733398 ], [ 24.185702309217302, 31.970234304383201, 3.711899042129517 ], [ 26.082098007202099, 33.392189025878899, 3.875959873199463 ], [ 33.790910854714902, 40.112303785006603, 6.361583232879639 ], [ 34.915390436667799, 38.888523662196597, 6.314338207244873 ], [ 27.104320526123001, 32.206226348877003, 3.852547407150269 ], [ 25.278090207496899, 30.6847533565617, 3.717920303344727 ], [ 17.4622253645882, 24.176285900958199, 1.334323763847351 ], [ 16.573135983524001, 23.642741459204199, 1.331061720848083 ], [ 16.828513071281598, 23.152978972728398, 1.378308773040771 ], [ 17.157739119640901, 23.299233086938099, 1.264706969261169 ], [ 23.362373352050799, 25.88840675354, -0.565238535404205 ], [ 23.987040617282499, 26.120599428484098, -0.898452579975128 ], [ 23.546579640682499, 27.255497574642401, -0.898453056812286 ], [ 28.052279152880899, 26.259825193390899, -0.577428102493286 ], [ 36.553596496582003, 30.917615890502901, -0.588450133800507 ], [ 41.331802368164098, 33.803680419921903, -0.596121370792389 ], [ 44.653316497802699, 35.059440612792997, -0.664824068546295 ], [ 45.1432495117188, 35.527587890625, -0.678276598453522 ], [ 46.939031780864198, 37.943818435221097, -0.628189086914062 ], [ 47.1709380627317, 38.422367835051702, -0.639431118965149 ], [ 45.219158172607401, 39.164703369140597, -0.610155522823334 ], [ 51.792636871337898, 50.489173889160199, -1.034502744674683 ], [ 58.186206817627003, 48.575183868408203, -0.898453056812286 ], [ 52.584930419921903, 36.151359558105497, -0.715645849704742 ] ] ] } },
{ "type": "Feature", "properties": { }, "geometry": { "type": "Polygon", "coordinates": [ [ [ 34.911133811627401, 38.858751913514702, 6.391096591949463 ], [ 33.790534973144503, 40.112712860107401, 6.361598968505859 ], [ 37.932122542063098, 42.892337843862599, 6.257307052612305 ], [ 43.670135498046903, 40.639862060546903, 6.25295877456665 ], [ 44.009559631347699, 39.390789031982401, 6.17529296875 ], [ 46.006477355957003, 39.118057250976598, 6.219481468200684 ], [ 46.788399858769402, 40.657807039200399, 6.25603199005127 ], [ 52.4664306640625, 38.413974761962898, 6.197633266448975 ], [ 51.7971987075206, 36.459451980793403, 6.246228694915771 ], [ 54.146152496337898, 35.515426635742202, 6.189957618713379 ], [ 54.448959545160903, 36.253976218903503, 6.108665943145752 ], [ 56.135045305948204, 35.371702820297003, 6.225587368011475 ], [ 53.063652038574197, 29.264377593994102, 6.267595291137695 ], [ 52.698494434154398, 29.0795933153546, 6.260425567626953 ], [ 51.280364789540499, 26.689567338591399, 6.242331027984619 ], [ 49.231240103204499, 26.915831021337201, 6.242615699768066 ], [ 47.673805236816399, 27.301559448242202, 6.24956226348877 ], [ 46.756448446577501, 24.890647127222099, 6.292104244232178 ], [ 51.010869104435599, 23.258332432640799, 6.385025024414062 ], [ 50.265511156717402, 21.272474451771501, 6.195012092590332 ], [ 49.699234179645998, 19.5840230671018, 6.202089309692383 ], [ 48.8581352233887, 17.5791339874268, 6.212729454040527 ], [ 45.874743800798697, 18.773098366826801, 6.386084079742432 ], [ 45.434668285087803, 18.873023684327201, 6.369369029998779 ], [ 45.064506530761697, 18.367048263549801, 6.278403759002686 ], [ 47.800235556050701, 17.217285341300901, 6.386084079742432 ], [ 47.231996933611697, 15.6165199572172, 6.237387180328369 ], [ 47.133460998535199, 14.502002716064499, 6.175942420959473 ], [ 47.735145568847699, 13.8030796051025, 6.200184345245361 ], [ 41.835489626477198, 2.2229655893564, 6.386084079742432 ], [ 40.336912368664201, 2.39077523304262, 6.064477443695068 ], [ 45.934302579794803, 16.463741485126299, 6.240252017974854 ], [ 42.662929534912102, 16.232994079589801, 6.291571617126465 ], [ 35.383399963378899, 15.7610626220703, 6.287455558776855 ], [ 35.1726932788049, 16.365941344198902, 6.306522846221924 ], [ 33.292652130127003, 16.290987014770501, 6.5035080909729 ], [ 33.295424400428402, 16.6166356703276, 6.876338481903076 ], [ 30.594911381414899, 16.4153073291493, 6.387770652770996 ], [ 25.056226150081802, 2.65899214555048, 6.270136833190918 ], [ 21.528829268422101, 3.06758178609152, 6.443850994110107 ], [ 21.987911224365199, 10.628410339355501, 6.261731624603271 ], [ 23.562571577644, 10.615405677023, 6.367511749267578 ], [ 23.4147164912718, 13.8257658832133, 6.450456619262695 ], [ 22.036043249165601, 14.6628846533927, 6.426533699035645 ], [ 16.193683917218401, 14.5198976328341, 6.278277397155762 ], [ 16.170560579096801, 15.1272357997664, 6.143956184387207 ], [ 7.58939743041992, 14.649888992309601, 6.427992820739746 ], [ 7.08722778134853, 9.97379917791763, 6.424368381500244 ], [ 6.07672882080078, 9.972671508789061, 6.4354567527771 ], [ 5.90817727718408, 6.84125063331287, 6.392179012298584 ], [ 7.2639572446238, 6.87391705217199, 6.335724830627441 ], [ 7.08974266052246, 3.19566345214844, 6.425023555755615 ], [ 4.95488275599018, 3.28109215781186, 6.410850048065186 ], [ 3.66797637939453, 13.8720951080322, 6.464431762695312 ], [ 4.32183648797943, 15.5443797165061, 6.432294845581055 ], [ 8.21671204630529, 19.268093066810302, 6.484271049499512 ], [ 12.342416345527701, 20.9745489285371, 6.441200256347656 ], [ 13.2570085276478, 20.095002445537801, 6.752864837646484 ], [ 14.022461739265299, 19.377448261072502, 6.660392284393311 ], [ 14.689573849292, 20.024079384114099, 6.386188983917236 ], [ 15.872886657714799, 19.917930603027301, 6.395472049713135 ], [ 16.936000823974599, 20.195421218872099, 6.323630332946777 ], [ 17.586908340454102, 19.221256256103501, 6.391722202301025 ], [ 20.844135185687101, 20.327245020147, 6.390112400054932 ], [ 20.035784682556699, 21.799947494186998, 6.460975646972656 ], [ 23.862972782318199, 23.760021560318901, 6.36717414855957 ], [ 24.293798446655298, 24.383764266967798, 6.324942588806152 ], [ 36.400974316405403, 37.011749475973303, 6.380527019500732 ], [ 38.427156322492799, 36.549090713223201, 6.318573474884033 ], [ 35.549336721308698, 28.669996909806599, 6.329933166503906 ], [ 33.4186789805904, 27.444642274329599, 6.299066066741943 ], [ 31.431816135433401, 27.972859709313401, 6.327497482299805 ], [ 31.212748221638499, 27.813748200843399, 6.28732967376709 ], [ 28.5480041503906, 20.398994445800799, 6.580446243286133 ], [ 29.359737396240199, 20.034730911254901, 6.37336540222168 ], [ 30.422727513217399, 22.847245559001699, 6.396389007568359 ], [ 31.523294529002101, 22.6534749095492, 6.405329704284668 ], [ 32.326206968242801, 24.763308467228999, 6.342075347900391 ], [ 39.3348197937012, 22.008132934570298, 6.323188304901123 ], [ 40.487617492675803, 22.728507995605501, 6.316097259521484 ], [ 46.740039825439503, 20.615669250488299, 6.321710109710693 ], [ 47.364818569635403, 22.429467162625699, 6.327271938323975 ], [ 46.076737741118798, 22.9432431635353, 6.386003017425537 ], [ 36.739261627197301, 26.732610702514599, 6.399416923522949 ], [ 40.030391693115199, 35.447017669677699, 6.297203063964844 ], [ 48.638029025639902, 32.141071968437203, 6.259736061096191 ], [ 49.310523986816399, 31.3673992156982, 6.247983932495117 ], [ 48.556663513183601, 29.1077785491943, 6.266068935394287 ], [ 49.919502681315201, 28.548713777620701, 6.240830898284912 ], [ 51.449838476857401, 32.179385269595898, 6.236862659454346 ], [ 52.024037965759803, 34.031539831228898, 6.266120910644531 ], [ 51.476749420166001, 34.544105529785199, 6.248717308044434 ], [ 40.9333686828613, 38.610027313232401, 6.245357990264893 ], [ 39.106082167371298, 38.184065232853598, 6.327337265014648 ], [ 38.469471856446901, 36.568656926084003, 6.230197906494141 ], [ 36.400733947753899, 37.010948181152301, 6.380546092987061 ], [ 36.190925598144503, 37.867038726806598, 6.049842357635498 ], [ 35.203553777765201, 39.120122070013601, 6.386084079742432 ], [ 34.911133811627401, 38.858751913514702, 6.391096591949463 ] ] ] } }
]
}
