{
"type": "FeatureCollection",
"name": "C:\\Users\\Administrator\\Desktop\\武大高斯\\套盒\\全部.geojson",
"crs": { "type": "name", "properties": { "name": "urn:ogc:def:crs:OGC:1.3:CRS84" } },
"features": [
{ "type": "Feature", "properties": { "ELEVATION": "1.3218" }, "geometry": { "type": "Point", "coordinates": [ 44.821243286132798, 19.663667678833001, 1.321799993515015 ] } },
{ "type": "Feature", "properties": { "ELEVATION": "1.4905" }, "geometry": { "type": "Point", "coordinates": [ 37.118232460406801, 16.7735091686041, 1.490499973297119 ] } },
{ "type": "Feature", "properties": { "ELEVATION": "2.0933" }, "geometry": { "type": "Point", "coordinates": [ 31.033016204833999, 16.929872512817401, 2.093300104141235 ] } },
{ "type": "Feature", "properties": { "ELEVATION": "1.853" }, "geometry": { "type": "Point", "coordinates": [ 25.769847869873001, 21.298509597778299, 1.853000044822693 ] } },
{ "type": "Feature", "properties": { "ELEVATION": "0.8194" }, "geometry": { "type": "Point", "coordinates": [ 28.994052886962901, 27.029731750488299, 0.819400012493134 ] } },
{ "type": "Feature", "properties": { "ELEVATION": "0.4702" }, "geometry": { "type": "Point", "coordinates": [ 31.298446655273398, 28.331428527831999, 0.470200002193451 ] } },
{ "type": "Feature", "properties": { "ELEVATION": "2.5505" }, "geometry": { "type": "Point", "coordinates": [ 13.6960105895996, 22.6701755523682, 2.55049991607666 ] } },
{ "type": "Feature", "properties": { "ELEVATION": "3.2914" }, "geometry": { "type": "Point", "coordinates": [ 16.785589218139599, 26.465311050415, 3.291399955749512 ] } },
{ "type": "Feature", "properties": { "ELEVATION": "5.3924" }, "geometry": { "type": "Point", "coordinates": [ 24.786300659179702, 33.068939208984403, 5.392399787902832 ] } },
{ "type": "Feature", "properties": { "ELEVATION": "6.0181" }, "geometry": { "type": "Point", "coordinates": [ 26.2768878936768, 34.433700561523402, 6.018099784851074 ] } },
{ "type": "Feature", "properties": { "ELEVATION": "6.6625" }, "geometry": { "type": "Point", "coordinates": [ 28.1555366516113, 36.086627960205099, 6.662499904632568 ] } },
{ "type": "Feature", "properties": { "ELEVATION": "7.5081" }, "geometry": { "type": "Point", "coordinates": [ 30.209493637085, 37.950534820556598, 7.508100032806396 ] } },
{ "type": "Feature", "properties": { "ELEVATION": "7.7242" }, "geometry": { "type": "Point", "coordinates": [ 39.796424865722699, 43.196086883544901, 7.724199771881104 ] } },
{ "type": "Feature", "properties": { "ELEVATION": "7.713" }, "geometry": { "type": "Point", "coordinates": [ 41.459823608398402, 42.504203796386697, 7.712999820709229 ] } },
{ "type": "Feature", "properties": { "ELEVATION": "7.2584" }, "geometry": { "type": "Point", "coordinates": [ 43.038154602050803, 41.896492004394503, 7.258399963378906 ] } },
{ "type": "Feature", "properties": { "ELEVATION": "9.584" }, "geometry": { "type": "Point", "coordinates": [ 51.822196960449197, 43.595542907714801, 9.583999633789062 ] } },
{ "type": "Feature", "properties": { "ELEVATION": "7.2293" }, "geometry": { "type": "Point", "coordinates": [ 55.618106842041001, 36.984695434570298, 7.229300022125244 ] } },
{ "type": "Feature", "properties": { "ELEVATION": "7.7351" }, "geometry": { "type": "Point", "coordinates": [ 57.463592529296903, 35.3847846984863, 7.735099792480469 ] } },
{ "type": "Feature", "properties": { "ELEVATION": "8.4101" }, "geometry": { "type": "Point", "coordinates": [ 40.982315063476598, 37.4275093078613, 8.410099983215332 ] } },
{ "type": "Feature", "properties": { "ELEVATION": "8.3206" }, "geometry": { "type": "Point", "coordinates": [ 42.1817436218262, 36.994342803955099, 8.320599555969238 ] } },
{ "type": "Feature", "properties": { "ELEVATION": "8.1046" }, "geometry": { "type": "Point", "coordinates": [ 43.387008666992202, 36.480186462402301, 8.104599952697754 ] } },
{ "type": "Feature", "properties": { "ELEVATION": "8.1807" }, "geometry": { "type": "Point", "coordinates": [ 44.6365966796875, 36.030609130859403, 8.180700302124023 ] } },
{ "type": "Feature", "properties": { "ELEVATION": "8.1875" }, "geometry": { "type": "Point", "coordinates": [ 45.905662536621101, 35.506076812744098, 8.1875 ] } },
{ "type": "Feature", "properties": { "ELEVATION": "8.1741" }, "geometry": { "type": "Point", "coordinates": [ 47.155670166015597, 34.977210998535199, 8.174099922180176 ] } },
{ "type": "Feature", "properties": { "ELEVATION": "8.2093" }, "geometry": { "type": "Point", "coordinates": [ 48.392093658447301, 34.471729278564503, 8.20930004119873 ] } },
{ "type": "Feature", "properties": { "ELEVATION": "8.2552" }, "geometry": { "type": "Point", "coordinates": [ 49.8318481445313, 33.956951141357401, 8.255200386047363 ] } },
{ "type": "Feature", "properties": { "ELEVATION": "7.9149" }, "geometry": { "type": "Point", "coordinates": [ 50.660491943359403, 33.624305725097699, 7.914899826049805 ] } },
{ "type": "Feature", "properties": { "ELEVATION": "7.8826" }, "geometry": { "type": "Point", "coordinates": [ 56.9791870117188, 33.4978637695313, 7.882599830627441 ] } },
{ "type": "Feature", "properties": { "ELEVATION": "8.0367" }, "geometry": { "type": "Point", "coordinates": [ 56.115737915039098, 31.846580505371101, 8.036700248718262 ] } },
{ "type": "Feature", "properties": { "ELEVATION": "7.6899" }, "geometry": { "type": "Point", "coordinates": [ 55.6887817382813, 30.893470764160199, 7.689899921417236 ] } },
{ "type": "Feature", "properties": { "ELEVATION": "9.0868" }, "geometry": { "type": "Point", "coordinates": [ 56.6914672851563, 32.905059814453097, 9.086799621582031 ] } },
{ "type": "Feature", "properties": { "ELEVATION": "9.3761" }, "geometry": { "type": "Point", "coordinates": [ 56.198005676269503, 31.9071960449219, 9.376099586486816 ] } },
{ "type": "Feature", "properties": { "ELEVATION": "7.8423" }, "geometry": { "type": "Point", "coordinates": [ 54.639511108398402, 29.137403488159201, 7.842299938201904 ] } },
{ "type": "Feature", "properties": { "ELEVATION": "8.4847" }, "geometry": { "type": "Point", "coordinates": [ 53.679889678955099, 27.0675354003906, 8.484700202941895 ] } },
{ "type": "Feature", "properties": { "ELEVATION": "8.9702" }, "geometry": { "type": "Point", "coordinates": [ 53.065881382701797, 25.861718184432899, 8.970199584960938 ] } },
{ "type": "Feature", "properties": { "ELEVATION": "8" }, "geometry": { "type": "Point", "coordinates": [ 52.801780700683601, 25.3815822601318, 8.0 ] } },
{ "type": "Feature", "properties": { "ELEVATION": "7.4452" }, "geometry": { "type": "Point", "coordinates": [ 53.330047607421903, 27.212947845458999, 7.445199966430664 ] } },
{ "type": "Feature", "properties": { "ELEVATION": "7.5296" }, "geometry": { "type": "Point", "coordinates": [ 52.783992767333999, 25.388343811035199, 7.529600143432617 ] } },
{ "type": "Feature", "properties": { "ELEVATION": "7.6084" }, "geometry": { "type": "Point", "coordinates": [ 50.969696044921903, 25.753419876098601, 7.608399868011475 ] } },
{ "type": "Feature", "properties": { "ELEVATION": "8.1816" }, "geometry": { "type": "Point", "coordinates": [ 50.002670288085902, 25.5290622711182, 8.181599617004395 ] } },
{ "type": "Feature", "properties": { "ELEVATION": "9.0646" }, "geometry": { "type": "Point", "coordinates": [ 50.9626655578613, 25.1217365264893, 9.064599990844727 ] } },
{ "type": "Feature", "properties": { "ELEVATION": "8.9608" }, "geometry": { "type": "Point", "coordinates": [ 49.342811584472699, 25.6506862640381, 8.960800170898438 ] } },
{ "type": "Feature", "properties": { "ELEVATION": "8.1803" }, "geometry": { "type": "Point", "coordinates": [ 51.159084320068402, 32.5280952453613, 8.180299758911133 ] } },
{ "type": "Feature", "properties": { "ELEVATION": "8.9562" }, "geometry": { "type": "Point", "coordinates": [ 50.764541625976598, 31.571416854858398, 8.956199645996094 ] } },
{ "type": "Feature", "properties": { "ELEVATION": "8.0042" }, "geometry": { "type": "Point", "coordinates": [ 49.887252807617202, 29.353153228759801, 8.004199981689453 ] } },
{ "type": "Feature", "properties": { "ELEVATION": "7.7489" }, "geometry": { "type": "Point", "coordinates": [ 50.690860748291001, 31.373531341552699, 7.748899936676025 ] } },
{ "type": "Feature", "properties": { "ELEVATION": "8.0009" }, "geometry": { "type": "Point", "coordinates": [ 49.495750427246101, 31.004524230956999, 8.000900268554688 ] } },
{ "type": "Feature", "properties": { "ELEVATION": "7.9429" }, "geometry": { "type": "Point", "coordinates": [ 47.797866821289098, 33.704444885253899, 7.94290018081665 ] } },
{ "type": "Feature", "properties": { "ELEVATION": "8.1123" }, "geometry": { "type": "Point", "coordinates": [ 46.434791564941399, 34.047126770019503, 8.112299919128418 ] } },
{ "type": "Feature", "properties": { "ELEVATION": "7.7384" }, "geometry": { "type": "Point", "coordinates": [ 45.298583984375, 34.646644592285199, 7.738399982452393 ] } },
{ "type": "Feature", "properties": { "ELEVATION": "7.7749" }, "geometry": { "type": "Point", "coordinates": [ 43.648368835449197, 35.152439117431598, 7.774899959564209 ] } },
{ "type": "Feature", "properties": { "ELEVATION": "7.8015" }, "geometry": { "type": "Point", "coordinates": [ 41.988662719726598, 35.765754699707003, 7.801499843597412 ] } },
{ "type": "Feature", "properties": { "ELEVATION": "7.8004" }, "geometry": { "type": "Point", "coordinates": [ 40.600326538085902, 36.314804077148402, 7.800399780273438 ] } },
{ "type": "Feature", "properties": { "ELEVATION": "7.8663" }, "geometry": { "type": "Point", "coordinates": [ 39.317916870117202, 35.624534606933601, 7.866300106048584 ] } },
{ "type": "Feature", "properties": { "ELEVATION": "7.8303" }, "geometry": { "type": "Point", "coordinates": [ 38.590492248535199, 33.965766906738303, 7.830299854278564 ] } },
{ "type": "Feature", "properties": { "ELEVATION": "8.2255" }, "geometry": { "type": "Point", "coordinates": [ 37.095191955566399, 31.847843170166001, 8.225500106811523 ] } },
{ "type": "Feature", "properties": { "ELEVATION": "7.9423" }, "geometry": { "type": "Point", "coordinates": [ 36.742156982421903, 28.841838836669901, 7.942299842834473 ] } },
{ "type": "Feature", "properties": { "ELEVATION": "7.9168" }, "geometry": { "type": "Point", "coordinates": [ 36.060031890869098, 27.138511657714801, 7.916800022125244 ] } },
{ "type": "Feature", "properties": { "ELEVATION": "7.8343" }, "geometry": { "type": "Point", "coordinates": [ 36.544353485107401, 25.9506645202637, 7.83430004119873 ] } },
{ "type": "Feature", "properties": { "ELEVATION": "7.8522" }, "geometry": { "type": "Point", "coordinates": [ 37.842151641845703, 25.508111953735401, 7.852200031280518 ] } },
{ "type": "Feature", "properties": { "ELEVATION": "7.8209" }, "geometry": { "type": "Point", "coordinates": [ 39.199417114257798, 24.984683990478501, 7.820899963378906 ] } },
{ "type": "Feature", "properties": { "ELEVATION": "7.6762" }, "geometry": { "type": "Point", "coordinates": [ 40.695644378662102, 24.424501419067401, 7.676199913024902 ] } },
{ "type": "Feature", "properties": { "ELEVATION": "7.7794" }, "geometry": { "type": "Point", "coordinates": [ 42.043449401855497, 23.8364658355713, 7.779399871826172 ] } },
{ "type": "Feature", "properties": { "ELEVATION": "7.8501" }, "geometry": { "type": "Point", "coordinates": [ 44.054821014404297, 23.0698051452637, 7.850100040435791 ] } },
{ "type": "Feature", "properties": { "ELEVATION": "7.9485" }, "geometry": { "type": "Point", "coordinates": [ 47.511245727539098, 26.052289962768601, 7.948500156402588 ] } },
{ "type": "Feature", "properties": { "ELEVATION": "7.9888" }, "geometry": { "type": "Point", "coordinates": [ 46.928356170654297, 21.5538425445557, 7.988800048828125 ] } },
{ "type": "Feature", "properties": { "ELEVATION": "7.5972" }, "geometry": { "type": "Point", "coordinates": [ 41.212825775146499, 28.086362838745099, 7.5971999168396 ] } },
{ "type": "Feature", "properties": { "ELEVATION": "4.192" }, "geometry": { "type": "Point", "coordinates": [ 37.172199249267599, 19.7579746246338, 4.191999912261963 ] } },
{ "type": "Feature", "properties": { "ELEVATION": "7.4529" }, "geometry": { "type": "Point", "coordinates": [ 42.8464164733887, 32.046390533447301, 7.452899932861328 ] } },
{ "type": "Feature", "properties": { "ELEVATION": "7.9045" }, "geometry": { "type": "Point", "coordinates": [ 45.2343139648438, 21.237920761108398, 7.904500007629395 ] } },
{ "type": "Feature", "properties": { "ELEVATION": "8.1081" }, "geometry": { "type": "Point", "coordinates": [ 43.689018249511697, 21.945842742919901, 8.108099937438965 ] } },
{ "type": "Feature", "properties": { "ELEVATION": "8.0211" }, "geometry": { "type": "Point", "coordinates": [ 41.9511108398438, 22.567268371581999, 8.021100044250488 ] } },
{ "type": "Feature", "properties": { "ELEVATION": "8.3824" }, "geometry": { "type": "Point", "coordinates": [ 40.648086547851598, 23.064598083496101, 8.382399559020996 ] } },
{ "type": "Feature", "properties": { "ELEVATION": "8.0272" }, "geometry": { "type": "Point", "coordinates": [ 37.233074188232401, 24.395301818847699, 8.027199745178223 ] } },
{ "type": "Feature", "properties": { "ELEVATION": "7.4415" }, "geometry": { "type": "Point", "coordinates": [ 34.608436584472699, 25.439876556396499, 7.441500186920166 ] } },
{ "type": "Feature", "properties": { "ELEVATION": "7.2546" }, "geometry": { "type": "Point", "coordinates": [ 32.862644195556598, 26.2408542633057, 7.254600048065186 ] } },
{ "type": "Feature", "properties": { "ELEVATION": "7.6114" }, "geometry": { "type": "Point", "coordinates": [ 31.0105171203613, 25.216236114501999, 7.611400127410889 ] } },
{ "type": "Feature", "properties": { "ELEVATION": "7.3739" }, "geometry": { "type": "Point", "coordinates": [ 33.7367134094238, 21.666852951049801, 7.373899936676025 ] } },
{ "type": "Feature", "properties": { "ELEVATION": "7.331" }, "geometry": { "type": "Point", "coordinates": [ 39.206600189208999, 20.049331665039102, 7.330999851226807 ] } },
{ "type": "Feature", "properties": { "ELEVATION": "7.3198" }, "geometry": { "type": "Point", "coordinates": [ 40.597987223529003, 19.7075442230798, 7.319799900054932 ] } },
{ "type": "Feature", "properties": { "ELEVATION": "7.3826" }, "geometry": { "type": "Point", "coordinates": [ 31.9197483062744, 16.066841125488299, 7.382599830627441 ] } },
{ "type": "Feature", "properties": { "ELEVATION": "8.1409" }, "geometry": { "type": "Point", "coordinates": [ 34.075592041015597, 15.354438781738301, 8.140899658203125 ] } },
{ "type": "Feature", "properties": { "ELEVATION": "8.1608" }, "geometry": { "type": "Point", "coordinates": [ 35.769229888916001, 15.472110748291, 8.160799980163574 ] } },
{ "type": "Feature", "properties": { "ELEVATION": "8.2526" }, "geometry": { "type": "Point", "coordinates": [ 38.652866363525398, 15.676313400268601, 8.252599716186523 ] } },
{ "type": "Feature", "properties": { "ELEVATION": "7.5756" }, "geometry": { "type": "Point", "coordinates": [ 48.307228088378899, 15.688331604003899, 7.575600147247314 ] } },
{ "type": "Feature", "properties": { "ELEVATION": "8.0453" }, "geometry": { "type": "Point", "coordinates": [ 47.309616088867202, 11.7638206481934, 8.045299530029297 ] } },
{ "type": "Feature", "properties": { "ELEVATION": "8.1023" }, "geometry": { "type": "Point", "coordinates": [ 45.675136566162102, 8.653701782226561, 8.102299690246582 ] } },
{ "type": "Feature", "properties": { "ELEVATION": "8.0901" }, "geometry": { "type": "Point", "coordinates": [ 45.058109283447301, 7.50063705444336, 8.090100288391113 ] } },
{ "type": "Feature", "properties": { "ELEVATION": "8.0687" }, "geometry": { "type": "Point", "coordinates": [ 44.413040161132798, 6.28029632568359, 8.068699836730957 ] } },
{ "type": "Feature", "properties": { "ELEVATION": "8.039" }, "geometry": { "type": "Point", "coordinates": [ 43.7942504882813, 5.05268859863281, 8.038999557495117 ] } },
{ "type": "Feature", "properties": { "ELEVATION": "8.0673" }, "geometry": { "type": "Point", "coordinates": [ 42.8622856140137, 3.20277786254883, 8.067299842834473 ] } },
{ "type": "Feature", "properties": { "ELEVATION": "7.3003" }, "geometry": { "type": "Point", "coordinates": [ 41.196743011474602, 5.36888122558594, 7.300300121307373 ] } },
{ "type": "Feature", "properties": { "ELEVATION": "7.4867" }, "geometry": { "type": "Point", "coordinates": [ 42.074512481689503, 7.39218521118164, 7.486700057983398 ] } },
{ "type": "Feature", "properties": { "ELEVATION": "7.4128" }, "geometry": { "type": "Point", "coordinates": [ 43.053047180175803, 9.707443237304689, 7.412799835205078 ] } },
{ "type": "Feature", "properties": { "ELEVATION": "7.7802" }, "geometry": { "type": "Point", "coordinates": [ 44.0199165344238, 11.9042625427246, 7.780200004577637 ] } },
{ "type": "Feature", "properties": { "ELEVATION": "8.0296" }, "geometry": { "type": "Point", "coordinates": [ 44.929214477539098, 13.942625045776399, 8.029600143432617 ] } },
{ "type": "Feature", "properties": { "ELEVATION": "7.9761" }, "geometry": { "type": "Point", "coordinates": [ 30.226764678955099, 22.753589630126999, 7.976099967956543 ] } },
{ "type": "Feature", "properties": { "ELEVATION": "7.9435" }, "geometry": { "type": "Point", "coordinates": [ 29.714148091665301, 21.0999235531553, 7.94350004196167 ] } },
{ "type": "Feature", "properties": { "ELEVATION": "8.403" }, "geometry": { "type": "Point", "coordinates": [ 23.710670471191399, 17.0683784484863, 8.402999877929688 ] } },
{ "type": "Feature", "properties": { "ELEVATION": "7.9452" }, "geometry": { "type": "Point", "coordinates": [ 19.295921325683601, 14.3548278808594, 7.945199966430664 ] } },
{ "type": "Feature", "properties": { "ELEVATION": "7.1364" }, "geometry": { "type": "Point", "coordinates": [ 15.2811647751886, 14.713425819183801, 7.13640022277832 ] } },
{ "type": "Feature", "properties": { "ELEVATION": "7.117" }, "geometry": { "type": "Point", "coordinates": [ 13.6421566009521, 14.583911895751999, 7.117000102996826 ] } },
{ "type": "Feature", "properties": { "ELEVATION": "7.1511" }, "geometry": { "type": "Point", "coordinates": [ 12.0126276583233, 14.4731265402676, 7.151100158691406 ] } },
{ "type": "Feature", "properties": { "ELEVATION": "7.1151" }, "geometry": { "type": "Point", "coordinates": [ 10.3153275055906, 14.341266955087001, 7.115099906921387 ] } },
{ "type": "Feature", "properties": { "ELEVATION": "7.1872" }, "geometry": { "type": "Point", "coordinates": [ 8.912786994568791, 14.3306539761279, 7.18720006942749 ] } },
{ "type": "Feature", "properties": { "ELEVATION": "8.1231" }, "geometry": { "type": "Point", "coordinates": [ 14.9000374955376, 13.9730260143065, 8.123100280761719 ] } },
{ "type": "Feature", "properties": { "ELEVATION": "8.3043" }, "geometry": { "type": "Point", "coordinates": [ 12.4815349578857, 13.865556716918899, 8.304300308227539 ] } },
{ "type": "Feature", "properties": { "ELEVATION": "8.3452" }, "geometry": { "type": "Point", "coordinates": [ 10.3677272796631, 13.725465774536101, 8.345199584960938 ] } },
{ "type": "Feature", "properties": { "ELEVATION": "7.7383" }, "geometry": { "type": "Point", "coordinates": [ 6.80911827087402, 18.649034500122099, 7.73829984664917 ] } },
{ "type": "Feature", "properties": { "ELEVATION": "7.8528" }, "geometry": { "type": "Point", "coordinates": [ 5.19597244262695, 17.133256912231399, 7.852799892425537 ] } },
{ "type": "Feature", "properties": { "ELEVATION": "7.3149" }, "geometry": { "type": "Point", "coordinates": [ 2.63037300109863, 13.834199905395501, 7.314899921417236 ] } },
{ "type": "Feature", "properties": { "ELEVATION": "8.1634" }, "geometry": { "type": "Point", "coordinates": [ 3.11234092712402, 8.898563385009769, 8.163399696350098 ] } },
{ "type": "Feature", "properties": { "ELEVATION": "8.0815" }, "geometry": { "type": "Point", "coordinates": [ 3.4968204498291, 6.71906280517578, 8.081500053405762 ] } },
{ "type": "Feature", "properties": { "ELEVATION": "8.4952" }, "geometry": { "type": "Point", "coordinates": [ 30.089376449585, 23.9711513519287, 8.495200157165527 ] } }
]
}
