<?xml version="1.0" encoding="utf-8"?>
<kml xmlns="http://www.opengis.net/kml/2.2">
  <Document id="root_doc">
    <Placemark>
      <name>1_点</name>
      <description/>
      <Point>
        <coordinates>
          11.7504692077637,-23.6194000244141,0.35591459274292
        </coordinates>
      </Point>
    </Placemark>
    <Placemark>
      <name>2_点</name>
      <description/>
      <Point>
        <coordinates>
          3.62883734703064,-27.9008388519287,0.728460669517517
        </coordinates>
      </Point>
    </Placemark>
    <Placemark>
      <name>3_点</name>
      <description/>
      <Point>
        <coordinates>
          -2.10922932624817,-27.5538711547852,1.26879477500916
        </coordinates>
      </Point>
    </Placemark>
    <Placemark>
      <name>4_点</name>
      <description/>
      <Point>
        <coordinates>
          -7.47506093978882,-23.2231140136719,1.16333162784576
        </coordinates>
      </Point>
    </Placemark>
    <Placemark>
      <name>5_点</name>
      <description/>
      <Point>
        <coordinates>
          -4.27123689651489,-17.4528007507324,0.124965362250805
        </coordinates>
      </Point>
    </Placemark>
    <Placemark>
      <name>6_点</name>
      <description/>
      <Point>
        <coordinates>
          -2.002395585078,-16.0275639497692,-0.291356459827798
        </coordinates>
      </Point>
    </Placemark>
    <Placemark>
      <name>7_点</name>
      <description/>
      <Point>
        <coordinates>
          0.722272992134094,-13.9100751876831,-0.426903426647186
        </coordinates>
      </Point>
    </Placemark>
    <Placemark>
      <name>8_点</name>
      <description/>
      <Point>
        <coordinates>
          -19.577709197998,-21.8384418487549,1.79018771648407
        </coordinates>
      </Point>
    </Placemark>
    <Placemark>
      <name>9_点</name>
      <description/>
      <Point>
        <coordinates>
          -16.4464321136475,-17.9483013153076,2.68410611152649
        </coordinates>
      </Point>
    </Placemark>
    <Placemark>
      <name>10_点</name>
      <description/>
      <Point>
        <coordinates>
          -8.48457527160645,-11.3895215988159,4.71996641159058
        </coordinates>
      </Point>
    </Placemark>
    <Placemark>
      <name>11_点</name>
      <description/>
      <Point>
        <coordinates>
          -7.00336599349976,-10.0243253707886,5.36789655685425
        </coordinates>
      </Point>
    </Placemark>
    <Placemark>
      <name>12_点</name>
      <description/>
      <Point>
        <coordinates>
          -5.10250425338745,-8.37927055358887,5.94764137268066
        </coordinates>
      </Point>
    </Placemark>
    <Placemark>
      <name>13_点</name>
      <description/>
      <Point>
        <coordinates>
          -3.02530169487,-6.5397572517395,6.66267824172974
        </coordinates>
      </Point>
    </Placemark>
    <Placemark>
      <name>14_点</name>
      <description/>
      <Point>
        <coordinates>
          6.53148937225342,-1.26648318767548,7.07088756561279
        </coordinates>
      </Point>
    </Placemark>
    <Placemark>
      <name>15_点</name>
      <description/>
      <Point>
        <coordinates>
          8.19732475280762,-1.9599484205246,7.20467185974121
        </coordinates>
      </Point>
    </Placemark>
    <Placemark>
      <name>16_点</name>
      <description/>
      <Point>
        <coordinates>
          9.80062103271484,-2.57871675491333,6.51018190383911
        </coordinates>
      </Point>
    </Placemark>
    <Placemark>
      <name>17_点</name>
      <description/>
      <Point>
        <coordinates>
          18.5498828887939,-0.911522269248962,8.87912464141846
        </coordinates>
      </Point>
    </Placemark>
    <Placemark>
      <name>18_点</name>
      <description/>
      <Point>
        <coordinates>
          22.2210254669189,-7.42758893966675,6.34872531890869
        </coordinates>
      </Point>
    </Placemark>
    <Placemark>
      <name>19_点</name>
      <description/>
      <Point>
        <coordinates>
          7.70335149765015,-7.02125406265259,7.43084049224854
        </coordinates>
      </Point>
    </Placemark>
    <Placemark>
      <name>20_点</name>
      <description/>
      <Point>
        <coordinates>
          8.92070388793945,-7.47816944122314,7.44932126998901
        </coordinates>
      </Point>
    </Placemark>
    <Placemark>
      <name>21_点</name>
      <description/>
      <Point>
        <coordinates>
          10.0807228088379,-7.94978284835815,7.35061407089233
        </coordinates>
      </Point>
    </Placemark>
    <Placemark>
      <name>22_点</name>
      <description/>
      <Point>
        <coordinates>
          9.7716178894043,-8.6349573135376,6.83901405334473
        </coordinates>
      </Point>
    </Placemark>
    <Placemark>
      <name>23_点</name>
      <description/>
      <Point>
        <coordinates>
          11.3232316970825,-8.43776607513428,7.29755115509033
        </coordinates>
      </Point>
    </Placemark>
    <Placemark>
      <name>24_点</name>
      <description/>
      <Point>
        <coordinates>
          12.6175632476807,-8.98403167724609,7.34722375869751
        </coordinates>
      </Point>
    </Placemark>
    <Placemark>
      <name>25_点</name>
      <description/>
      <Point>
        <coordinates>
          13.8678617477417,-9.48101997375488,7.38820791244507
        </coordinates>
      </Point>
    </Placemark>
    <Placemark>
      <name>26_点</name>
      <description/>
      <Point>
        <coordinates>
          15.1276721954346,-9.99010467529297,7.3924036026001
        </coordinates>
      </Point>
    </Placemark>
    <Placemark>
      <name>27_点</name>
      <description/>
      <Point>
        <coordinates>
          16.5407485961914,-10.5165271759033,7.3615665435791
        </coordinates>
      </Point>
    </Placemark>
    <Placemark>
      <name>28_点</name>
      <description/>
      <Point>
        <coordinates>
          17.31321144104,-10.8075685501099,7.20080852508545
        </coordinates>
      </Point>
    </Placemark>
    <Placemark>
      <name>29_点</name>
      <description/>
      <Point>
        <coordinates>
          17.896635055542,-11.9233150482178,7.44063568115234
        </coordinates>
      </Point>
    </Placemark>
    <Placemark>
      <name>30_点</name>
      <description/>
      <Point>
        <coordinates>
          17.5344905853271,-12.826509475708,8.03323459625244
        </coordinates>
      </Point>
    </Placemark>
    <Placemark>
      <name>31_点</name>
      <description/>
      <Point>
        <coordinates>
          17.4572868347168,-13.0350875854492,7.03006172180176
        </coordinates>
      </Point>
    </Placemark>
    <Placemark>
      <name>32_点</name>
      <description/>
      <Point>
        <coordinates>
          16.6709613800049,-15.0567493438721,7.30160140991211
        </coordinates>
      </Point>
    </Placemark>
    <Placemark>
      <name>33_点</name>
      <description/>
      <Point>
        <coordinates>
          24.1051826477051,-9.07385540008545,7.41261434555054
        </coordinates>
      </Point>
    </Placemark>
    <Placemark>
      <name>34_点</name>
      <description/>
      <Point>
        <coordinates>
          23.7287197113037,-10.9392261505127,7.23209810256958
        </coordinates>
      </Point>
    </Placemark>
    <Placemark>
      <name>35_点</name>
      <description/>
      <Point>
        <coordinates>
          22.8945713043213,-12.5330457687378,7.27742576599121
        </coordinates>
      </Point>
    </Placemark>
    <Placemark>
      <name>36_点</name>
      <description/>
      <Point>
        <coordinates>
          23.432653427124,-11.5455389022827,8.38796424865723
        </coordinates>
      </Point>
    </Placemark>
    <Placemark>
      <name>37_点</name>
      <description/>
      <Point>
        <coordinates>
          22.9380493164063,-12.5452833175659,8.34576511383057
        </coordinates>
      </Point>
    </Placemark>
    <Placemark>
      <name>38_点</name>
      <description/>
      <Point>
        <coordinates>
          22.4163417816162,-13.5722675323486,6.99972867965698
        </coordinates>
      </Point>
    </Placemark>
    <Placemark>
      <name>39_点</name>
      <description/>
      <Point>
        <coordinates>
          21.4124794006348,-15.3868598937988,7.04553270339966
        </coordinates>
      </Point>
    </Placemark>
    <Placemark>
      <name>40_点</name>
      <description/>
      <Point>
        <coordinates>
          20.3993072509766,-17.4099216461182,7.74691581726074
        </coordinates>
      </Point>
    </Placemark>
    <Placemark>
      <name>41_点</name>
      <description/>
      <Point>
        <coordinates>
          19.9875926971436,-18.2497291564941,8.2903938293457
        </coordinates>
      </Point>
    </Placemark>
    <Placemark>
      <name>42_点</name>
      <description/>
      <Point>
        <coordinates>
          19.5872058868408,-19.106029510498,8.33512115478516
        </coordinates>
      </Point>
    </Placemark>
    <Placemark>
      <name>43_点</name>
      <description/>
      <Point>
        <coordinates>
          19.5416259765625,-19.0782489776611,7.31657028198242
        </coordinates>
      </Point>
    </Placemark>
    <Placemark>
      <name>44_点</name>
      <description/>
      <Point>
        <coordinates>
          20.0869045257568,-17.2515621185303,6.75762748718262
        </coordinates>
      </Point>
    </Placemark>
    <Placemark>
      <name>45_点</name>
      <description/>
      <Point>
        <coordinates>
          19.5233840942383,-19.0805110931396,6.77599430084229
        </coordinates>
      </Point>
    </Placemark>
    <Placemark>
      <name>46_点</name>
      <description/>
      <Point>
        <coordinates>
          17.7108039855957,-18.6987705230713,7.04006481170654
        </coordinates>
      </Point>
    </Placemark>
    <Placemark>
      <name>47_点</name>
      <description/>
      <Point>
        <coordinates>
          16.7364730834961,-18.9654102325439,7.53999185562134
        </coordinates>
      </Point>
    </Placemark>
    <Placemark>
      <name>48_点</name>
      <description/>
      <Point>
        <coordinates>
          17.6934490203857,-19.3408298492432,8.48083972930908
        </coordinates>
      </Point>
    </Placemark>
    <Placemark>
      <name>49_点</name>
      <description/>
      <Point>
        <coordinates>
          16.068208694458,-18.7393970489502,8.1190710067749
        </coordinates>
      </Point>
    </Placemark>
    <Placemark>
      <name>50_点</name>
      <description/>
      <Point>
        <coordinates>
          16.1832332611084,-13.5557498931885,7.48059034347534
        </coordinates>
      </Point>
    </Placemark>
    <Placemark>
      <name>51_点</name>
      <description/>
      <Point>
        <coordinates>
          14.2437038421631,-18.4173545837402,7.19343900680542
        </coordinates>
      </Point>
    </Placemark>
    <Placemark>
      <name>52_点</name>
      <description/>
      <Point>
        <coordinates>
          14.5667886734009,-10.7718935012817,7.3539834022522
        </coordinates>
      </Point>
    </Placemark>
    <Placemark>
      <name>53_点</name>
      <description/>
      <Point>
        <coordinates>
          13.206654548645,-10.373028755188,7.1374340057373
        </coordinates>
      </Point>
    </Placemark>
    <Placemark>
      <name>54_点</name>
      <description/>
      <Point>
        <coordinates>
          11.9679136276245,-9.7537260055542,7.07736778259277
        </coordinates>
      </Point>
    </Placemark>
    <Placemark>
      <name>55_点</name>
      <description/>
      <Point>
        <coordinates>
          10.3894329071045,-9.32055187225342,7.06913185119629
        </coordinates>
      </Point>
    </Placemark>
    <Placemark>
      <name>56_点</name>
      <description/>
      <Point>
        <coordinates>
          8.70114898681641,-8.66433143615723,7.16938304901123
        </coordinates>
      </Point>
    </Placemark>
    <Placemark>
      <name>57_点</name>
      <description/>
      <Point>
        <coordinates>
          7.3706955909729,-8.16913986206055,7.14440393447876
        </coordinates>
      </Point>
    </Placemark>
    <Placemark>
      <name>58_点</name>
      <description/>
      <Point>
        <coordinates>
          6.06181716918945,-8.83173751831055,7.17929553985596
        </coordinates>
      </Point>
    </Placemark>
    <Placemark>
      <name>59_点</name>
      <description/>
      <Point>
        <coordinates>
          5.31800031661987,-10.5709228515625,7.14538431167603
        </coordinates>
      </Point>
    </Placemark>
    <Placemark>
      <name>60_点</name>
      <description/>
      <Point>
        <coordinates>
          3.75738978385925,-12.6230478286743,7.51282644271851
        </coordinates>
      </Point>
    </Placemark>
    <Placemark>
      <name>61_点</name>
      <description/>
      <Point>
        <coordinates>
          3.36904764175415,-15.5859851837158,7.15863227844238
        </coordinates>
      </Point>
    </Placemark>
    <Placemark>
      <name>62_点</name>
      <description/>
      <Point>
        <coordinates>
          2.79614424705505,-17.3267097473145,7.2103533744812
        </coordinates>
      </Point>
    </Placemark>
    <Placemark>
      <name>63_点</name>
      <description/>
      <Point>
        <coordinates>
          3.33275175094604,-18.4728622436523,7.08091592788696
        </coordinates>
      </Point>
    </Placemark>
    <Placemark>
      <name>64_点</name>
      <description/>
      <Point>
        <coordinates>
          4.61786508560181,-18.9856433868408,7.22225713729858
        </coordinates>
      </Point>
    </Placemark>
    <Placemark>
      <name>65_点</name>
      <description/>
      <Point>
        <coordinates>
          5.90389442443848,-19.48268699646,7.23394632339478
        </coordinates>
      </Point>
    </Placemark>
    <Placemark>
      <name>66_点</name>
      <description/>
      <Point>
        <coordinates>
          7.43701314926147,-20.0736331939697,7.03298902511597
        </coordinates>
      </Point>
    </Placemark>
    <Placemark>
      <name>67_点</name>
      <description/>
      <Point>
        <coordinates>
          8.77015590667725,-20.6247959136963,6.98630237579346
        </coordinates>
      </Point>
    </Placemark>
    <Placemark>
      <name>69_点</name>
      <description/>
      <Point>
        <coordinates>
          13.6494836807251,-22.9004764556885,7.30265092849731
        </coordinates>
      </Point>
    </Placemark>
    <Placemark>
      <name>68_点</name>
      <description/>
      <Point>
        <coordinates>
          11.9794435501099,-23.2316417694092,7.22057867050171
        </coordinates>
      </Point>
    </Placemark>
    <Placemark>
      <name>70_点</name>
      <description/>
      <Point>
        <coordinates>
          10.0678520202637,-22.4784622192383,7.39385461807251
        </coordinates>
      </Point>
    </Placemark>
    <Placemark>
      <name>71_点</name>
      <description/>
      <Point>
        <coordinates>
          8.69210052490234,-21.8985958099365,7.31956577301025
        </coordinates>
      </Point>
    </Placemark>
    <Placemark>
      <name>72_点</name>
      <description/>
      <Point>
        <coordinates>
          7.38419580459595,-21.4006233215332,7.67599821090698
        </coordinates>
      </Point>
    </Placemark>
    <Placemark>
      <name>73_点</name>
      <description/>
      <Point>
        <coordinates>
          3.95862007141113,-20.0716152191162,7.33823299407959
        </coordinates>
      </Point>
    </Placemark>
    <Placemark>
      <name>74_点</name>
      <description/>
      <Point>
        <coordinates>
          1.18896019458771,-18.9068470001221,6.92558622360229
        </coordinates>
      </Point>
    </Placemark>
    <Placemark>
      <name>75_点</name>
      <description/>
      <Point>
        <coordinates>
          -0.403941929340363,-18.2223644256592,6.54914236068726
        </coordinates>
      </Point>
    </Placemark>
    <Placemark>
      <name>76_点</name>
      <description/>
      <Point>
        <coordinates>
          -2.26052975654602,-19.2676792144775,6.92501783370972
        </coordinates>
      </Point>
    </Placemark>
    <Placemark>
      <name>77_点</name>
      <description/>
      <Point>
        <coordinates>
          -3.02518607934334,-21.7535381812035,7.21106340868359
        </coordinates>
      </Point>
    </Placemark>
    <Placemark>
      <name>78_点</name>
      <description/>
      <Point>
        <coordinates>
          -3.6634083014765,-23.3855415127123,7.09638398609605
        </coordinates>
      </Point>
    </Placemark>
    <Placemark>
      <name>79_点</name>
      <description/>
      <Point>
        <coordinates>
          0.927347779273987,-29.1041469573975,7.43403196334839
        </coordinates>
      </Point>
    </Placemark>
    <Placemark>
      <name>80_点</name>
      <description/>
      <Point>
        <coordinates>
          2.50014090538025,-28.9941997528076,7.45495939254761
        </coordinates>
      </Point>
    </Placemark>
    <Placemark>
      <name>81_点</name>
      <description/>
      <Point>
        <coordinates>
          5.38049459457397,-28.7986373901367,7.55081176757813
        </coordinates>
      </Point>
    </Placemark>
    <Placemark>
      <name>82_点</name>
      <description/>
      <Point>
        <coordinates>
          15.0475654602051,-28.7692451477051,6.87931823730469
        </coordinates>
      </Point>
    </Placemark>
    <Placemark>
      <name>83_点</name>
      <description/>
      <Point>
        <coordinates>
          14.045726776123,-32.7014007568359,7.33884906768799
        </coordinates>
      </Point>
    </Placemark>
    <Placemark>
      <name>84_点</name>
      <description/>
      <Point>
        <coordinates>
          12.3786649703979,-35.8424034118652,7.40521669387817
        </coordinates>
      </Point>
    </Placemark>
    <Placemark>
      <name>85_点</name>
      <description/>
      <Point>
        <coordinates>
          11.8407316207886,-36.8792953491211,7.27538013458252
        </coordinates>
      </Point>
    </Placemark>
    <Placemark>
      <name>86_点</name>
      <description/>
      <Point>
        <coordinates>
          11.1668586730957,-38.1746788024902,7.36053085327148
        </coordinates>
      </Point>
    </Placemark>
    <Placemark>
      <name>87_点</name>
      <description/>
      <Point>
        <coordinates>
          10.5303621292114,-39.4125328063965,7.33259248733521
        </coordinates>
      </Point>
    </Placemark>
    <Placemark>
      <name>88_点</name>
      <description/>
      <Point>
        <coordinates>
          9.59925651550293,-41.271858215332,7.16716003417969
        </coordinates>
      </Point>
    </Placemark>
    <Placemark>
      <name>89_点</name>
      <description/>
      <Point>
        <coordinates>
          7.95290231704712,-39.0839805603027,6.70212268829346
        </coordinates>
      </Point>
    </Placemark>
    <Placemark>
      <name>90_点</name>
      <description/>
      <Point>
        <coordinates>
          8.89824006524679,-36.9711661626362,6.91524201779195
        </coordinates>
      </Point>
    </Placemark>
    <Placemark>
      <name>91_点</name>
      <description/>
      <Point>
        <coordinates>
          -9.6014461517334,-27.3949184417725,7.99483680725098
        </coordinates>
      </Point>
    </Placemark>
    <Placemark>
      <name>92_点</name>
      <description/>
      <Point>
        <coordinates>
          -13.9565124511719,-30.0476913452148,7.22046852111816
        </coordinates>
      </Point>
    </Placemark>
    <Placemark>
      <name>93_点</name>
      <description/>
      <Point>
        <coordinates>
          -14.8157157897949,-23.881908416748,7.22903633117676
        </coordinates>
      </Point>
    </Placemark>
    <Placemark>
      <name>94_点</name>
      <description/>
      <Point>
        <coordinates>
          -18.3310394287109,-30.4368190765381,7.61605787277222
        </coordinates>
      </Point>
    </Placemark>
    <Placemark>
      <name>95_点</name>
      <description/>
      <Point>
        <coordinates>
          -20.977783203125,-30.6137542724609,7.56656503677368
        </coordinates>
      </Point>
    </Placemark>
    <Placemark>
      <name>96_点</name>
      <description/>
      <Point>
        <coordinates>
          -22.857780456543,-30.7526664733887,7.75954532623291
        </coordinates>
      </Point>
    </Placemark>
    <Placemark>
      <name>97_点</name>
      <description/>
      <Point>
        <coordinates>
          -26.5876083374023,-25.9423427581787,7.03908586502075
        </coordinates>
      </Point>
    </Placemark>
    <Placemark>
      <name>98_点</name>
      <description/>
      <Point>
        <coordinates>
          -28.0611915588379,-27.3262405395508,7.14303779602051
        </coordinates>
      </Point>
    </Placemark>
    <Placemark>
      <name>99_点</name>
      <description/>
      <Point>
        <coordinates>
          -30.1697654724121,-35.5646095275879,7.40273427963257
        </coordinates>
      </Point>
    </Placemark>
    <Placemark>
      <name>100_点</name>
      <description/>
      <Point>
        <coordinates>
          -29.7663269042969,-37.7457237243652,7.38576364517212
        </coordinates>
      </Point>
    </Placemark>
    <Placemark>
      <name>101_点</name>
      <description/>
      <Point>
        <coordinates>
          -3.29885172843933,-20.803071975708,7.40460443496704
        </coordinates>
      </Point>
    </Placemark>
    <Placemark>
      <name>102_点</name>
      <description/>
      <Point>
        <coordinates>
          9.6810388522995,-12.4490433345366,6.86410275404869
        </coordinates>
      </Point>
    </Placemark>
    <Placemark>
      <name>103_点</name>
      <description/>
      <Point>
        <coordinates>
          7.94421672821045,-16.3883781433105,6.8155837059021
        </coordinates>
      </Point>
    </Placemark>
    <Placemark>
      <name>104_点</name>
      <description/>
      <Point>
        <coordinates>
          7.34581518173218,-24.7837543487549,6.94005346298218
        </coordinates>
      </Point>
    </Placemark>
    <Placemark>
      <name>105_点</name>
      <description/>
      <Point>
        <coordinates>
          5.96559210029309,-24.5712125990267,6.68083790019091
        </coordinates>
      </Point>
    </Placemark>
    <Placemark>
      <name>106_点</name>
      <description/>
      <Point>
        <coordinates>
          0.308444112539291,-22.8805236816406,6.73633098602295
        </coordinates>
      </Point>
    </Placemark>
    <Placemark>
      <name>107_点</name>
      <description/>
      <Point>
        <coordinates>
          -1.4223462282604,-28.5565489446084,6.64171847781066
        </coordinates>
      </Point>
    </Placemark>
    <Placemark>
      <name>108_点</name>
      <description/>
      <Point>
        <coordinates>
          -17.9816552195717,-29.7795990542596,6.4328365352965
        </coordinates>
      </Point>
    </Placemark>
    <Placemark>
      <name>109_点</name>
      <description/>
      <Point>
        <coordinates>
          -19.6211490631104,-29.8786792755127,6.43999433517456
        </coordinates>
      </Point>
    </Placemark>
    <Placemark>
      <name>110_点</name>
      <description/>
      <Point>
        <coordinates>
          -21.2187637898697,-29.933907582531,6.51012246823639
        </coordinates>
      </Point>
    </Placemark>
    <Placemark>
      <name>111_点</name>
      <description/>
      <Point>
        <coordinates>
          -22.8689498901367,-30.1081466674805,6.54481410980225
        </coordinates>
      </Point>
    </Placemark>
    <Placemark>
      <name>112_点</name>
      <description/>
      <Point>
        <coordinates>
          -24.4815981017858,-30.1280769783889,6.48662485066167
        </coordinates>
      </Point>
    </Placemark>
    <Placemark>
      <name>113_点</name>
      <description/>
      <Point>
        <coordinates>
          -30.3742607790239,-30.582504201413,6.57999377104094
        </coordinates>
      </Point>
    </Placemark>
    <Placemark>
      <name>114_点</name>
      <description/>
      <Point>
        <coordinates>
          -19.4993801116943,-24.2554416656494,6.61268997192383
        </coordinates>
      </Point>
    </Placemark>
  </Document>
</kml>
