{
"type": "FeatureCollection",
"name": "D:\\lm\\w\\data\\dian.geojson",
"crs": { "type": "name", "properties": { "name": "urn:ogc:def:crs:OGC:1.3:CRS84" } },
"features": [
{ "type": "Feature", "properties": { "num": 1, "image": "A1.jpg", "title": "融合·云冈艺术高校巡展·武汉大学站", "desc": "云冈石窟艺术高校巡展海报，云冈研究院与武汉大学联合呈现。" }, "geometry": { "type": "Point", "coordinates": [ 21.33, 0.62, 25.22 ] } },
{ "type": "Feature", "properties": { "num": 2, "image": "A2.jpg", "title": "边舞边奏", "desc": "云冈石窟彩塑·飞天与供养人（伎乐天，边舞边奏）。" }, "geometry": { "type": "Point", "coordinates": [ 5.26, 2.70, 36.23 ] } },
{ "type": "Feature", "properties": { "num": 3, "image": "A3.jpg", "title": "重要指示", "desc": "习近平总书记视察云冈石窟时的重要指示（要始终把保护放在第一位）。" }, "geometry": { "type": "Point", "coordinates": [ -1.90, 1.45, 27.02 ] } }
]
}